IXPE                    
1 49954U 21121A   24112.58334491  .00013399  00000+0  10505-2 0  9992
2 49954   0.2306  92.9774 0009731 162.8337 174.8754 14.97395780  4397
